{
"type": "FeatureCollection",
"name": "study_area",
"crs": { "type": "name", "properties": { "name": "urn:ogc:def:crs:OGC:1.3:CRS84" } },
"features": [
{ "type": "Feature", "properties": { "name": "murray_hill_study_area" }, "geometry": { "type": "Polygon", "coordinates": [ [ [ -73.983168149397315, 40.747551536499849 ], [ -73.983193097207533, 40.747563070160979 ], [ -73.983216430289062, 40.74757641622768 ], [ -73.983237921806179, 40.747591444954963 ], [ -73.983257362825611, 40.747608010239546 ], [ -73.983274564347866, 40.747625951040277 ], [ -73.983289359144479, 40.747645092943657 ], [ -73.983301603383921, 40.747665249859331 ], [ -73.983311178029837, 40.74768622582922 ], [ -73.983317989998412, 40.747707816932511 ], [ -73.983321973063354, 40.747729813268123 ], [ -73.983323088499901, 40.747752000995156 ], [ -73.983321325461262, 40.747774164411936 ], [ -73.983316701084263, 40.747796088052887 ], [ -73.983309260322898, 40.747817558783225 ], [ -73.983299075511326, 40.747838367871083 ], [ -73.983286245660764, 40.747858313016614 ], [ -73.979623758941287, 40.752904821315099 ], [ -73.979608422799203, 40.75292369015073 ], [ -73.979590719949925, 40.752941320055633 ], [ -73.979570822157001, 40.752957539972286 ], [ -73.979548922481243, 40.7529721925237 ], [ -73.979525233407585, 40.752985135540492 ], [ -73.979499984783374, 40.752996243440315 ], [ -73.979473421588182, 40.753005408446377 ], [ -73.979445801556878, 40.753012541633225 ], [ -73.979417392678755, 40.753017573789514 ], [ -73.979388470597314, 40.753020456089644 ], [ -73.979359315935682, 40.753021160567471 ], [ -73.979330211573668, 40.753019680387681 ], [ -73.979301439903054, 40.753016029912089 ], [ -73.979273280087455, 40.753010244560279 ], [ -73.979246005353701, 40.753002380465986 ], [ -73.979219880340594, 40.752992513932362 ], [ -73.96959586140656, 40.74889600177805 ], [ -73.969570960331097, 40.748884129652339 ], [ -73.969547729418267, 40.748870438721767 ], [ -73.969526397518308, 40.748855063857846 ], [ -73.969507174773554, 40.748838156520641 ], [ -73.969490250548333, 40.74881988326679 ], [ -73.969475791563482, 40.748800424108545 ], [ -73.969463940254087, 40.748779970740571 ], [ -73.969454813366298, 40.748758724651353 ], [ -73.969448500807459, 40.748736895138435 ], [ -73.969445064760365, 40.748714697246527 ], [ -73.969444539070992, 40.748692349648998 ], [ -73.969446928915019, 40.748670072493823 ], [ -73.969452210747008, 40.748648085234784 ], [ -73.96946033253252, 40.748626604469699 ], [ -73.969471214260764, 40.748605841806686 ], [ -73.969484748732881, 40.748586001779586 ], [ -73.973232260732374, 40.743701510134926 ], [ -73.973247780178028, 40.743683347539537 ], [ -73.973265522167694, 40.743666403016192 ], [ -73.973285322548776, 40.743650833337718 ], [ -73.973306998124514, 40.743636782556578 ], [ -73.973330348349037, 40.743624380672145 ], [ -73.973355157182809, 40.743613742427975 ], [ -73.97338119509142, 40.743604966250182 ], [ -73.973408221169265, 40.743598133336846 ], [ -73.973435985368354, 40.743593306906718 ], [ -73.973464230811715, 40.743590531614409 ], [ -73.973492696169956, 40.743589833137193 ], [ -73.973521118079148, 40.743591217937492 ], [ -73.973549233577259, 40.743594673203035 ], [ -73.973576782537137, 40.743600166965408 ], [ -73.973603510073119, 40.743607648395866 ], [ -73.973629168899222, 40.743617048275532 ], [ -73.983168149397315, 40.747551536499849 ] ] ] } }
]
}
